SL-14 R/B               
1 16792U 86046B   25365.10365020  .00001018  00000+0  11446-3 0  9995
2 16792  82.4824 144.9713 0024550  94.4781 265.9241 14.85508736116221
SL-14 R/B               
1 16882U 86055B   25365.04509350  .00000931  00000+0  10473-3 0  9996
2 16882  82.5196 191.1715 0018448 195.1326 285.6824 14.85551831109179
AJISAI (EGS)            
1 16908U 86061A   25365.31564287 -.00000091  00000+0  47416-4 0  9998
2 16908  50.0109 303.5984 0011322 112.5118  54.0061 12.44514503459486
COSMOS 1812             
1 17295U 87003A   25365.19035245  .00155359  00000+0  83373-3 0  9996
2 17295  82.4866 271.9874 0005356  63.5599 296.6218 15.79806691133568
SL-14 R/B               
1 17567U 87024B   25364.82527332  .00001031  00000+0  11474-3 0  9993
2 17567  82.5284 157.4648 0019452 126.2126 234.0893 14.86047018 77904
COSMOS 1833             
1 17589U 87027A   25365.26499814  .00000330  00000+0  20208-3 0  9998
2 17589  70.9176 109.8357 0023393 305.9557  53.9394 14.13032677   657
SL-16 R/B               
1 17590U 87027B   25365.29573193 -.00000111  00000+0 -31241-4 0  9995
2 17590  71.0033  60.6180 0007080 240.3764 119.6655 14.17156038  5655
SL-14 R/B               
1 17912U 87038B   25365.05427156  .00000939  00000+0  10618-3 0  9996
2 17912  82.5010   1.4485 0020221  35.5085 324.7472 14.85282055 69041
COSMOS 1844             
1 17973U 87041A   25364.94810487  .00000337  00000+0  19980-3 0  9990
2 17973  70.8981 179.1666 0029115 128.2738 232.1010 14.14536235993865
SL-14 R/B               
1 18153U 87055B   25365.24502052  .00000856  00000+0  96016-4 0  9998
2 18153  82.4986  53.5471 0019400 237.7181 122.2156 14.85542807 59776
COSMOS 1867             
1 18187U 87060A   25364.83692605  .00000035  00000+0  50745-4 0  9997
2 18187  65.0099 139.5229 0013756 272.9644  86.9866 14.31489629 10082
SL-14 R/B               
1 18749U 88001B   25365.23585514  .00000853  00000+0  95798-4 0  9997
2 18749  82.5130 259.7520 0019569 103.5065 256.8333 14.85445692 31866
