CCSDS_OMM_VERS = 2.0
CREATION_DATE  = 
ORIGINATOR     = 

OBJECT_NAME    = SL-14 R/B
OBJECT_ID      = 1986-046B
CENTER_NAME    = EARTH
REF_FRAME      = TEME
TIME_SYSTEM    = UTC
MEAN_ELEMENT_THEORY = SGP/SGP4

EPOCH          = 2025-12-31T02:29:15.377280
MEAN_MOTION    = 14.85508736
ECCENTRICITY   = .00245509
INCLINATION    = 82.4824
RA_OF_ASC_NODE = 144.9713
ARG_OF_PERICENTER = 94.4781
MEAN_ANOMALY   = 265.9241

EPHEMERIS_TYPE = 0
CLASSIFICATION_TYPE = U
NORAD_CAT_ID   = 16792
ELEMENT_SET_NO = 999
REV_AT_EPOCH   = 11622
BSTAR          = .11446117E-3
MEAN_MOTION_DOT = .1018E-4
MEAN_MOTION_DDOT = 0

CCSDS_OMM_VERS = 2.0
CREATION_DATE  = 
ORIGINATOR     = 

OBJECT_NAME    = SL-14 R/B
OBJECT_ID      = 1986-055B
CENTER_NAME    = EARTH
REF_FRAME      = TEME
TIME_SYSTEM    = UTC
MEAN_ELEMENT_THEORY = SGP/SGP4

EPOCH          = 2025-12-31T01:04:56.078400
MEAN_MOTION    = 14.85551831
ECCENTRICITY   = .00184488
INCLINATION    = 82.5196
RA_OF_ASC_NODE = 191.1715
ARG_OF_PERICENTER = 195.1326
MEAN_ANOMALY   = 285.6824

EPHEMERIS_TYPE = 0
CLASSIFICATION_TYPE = U
NORAD_CAT_ID   = 16882
ELEMENT_SET_NO = 999
REV_AT_EPOCH   = 10917
BSTAR          = .10473229E-3
MEAN_MOTION_DOT = .931E-5
MEAN_MOTION_DDOT = 0

CCSDS_OMM_VERS = 2.0
CREATION_DATE  = 
ORIGINATOR     = 

OBJECT_NAME    = AJISAI (EGS)
OBJECT_ID      = 1986-061A
CENTER_NAME    = EARTH
REF_FRAME      = TEME
TIME_SYSTEM    = UTC
MEAN_ELEMENT_THEORY = SGP/SGP4

EPOCH          = 2025-12-31T07:34:31.543968
MEAN_MOTION    = 12.44514503
ECCENTRICITY   = .00113224
INCLINATION    = 50.0109
RA_OF_ASC_NODE = 303.5984
ARG_OF_PERICENTER = 112.5118
MEAN_ANOMALY   = 54.0061

EPHEMERIS_TYPE = 0
CLASSIFICATION_TYPE = U
NORAD_CAT_ID   = 16908
ELEMENT_SET_NO = 999
REV_AT_EPOCH   = 45948
BSTAR          = .47416052E-4
MEAN_MOTION_DOT = -.91E-6
MEAN_MOTION_DDOT = 0

CCSDS_OMM_VERS = 2.0
CREATION_DATE  = 
ORIGINATOR     = 

OBJECT_NAME    = COSMOS 1812
OBJECT_ID      = 1987-003A
CENTER_NAME    = EARTH
REF_FRAME      = TEME
TIME_SYSTEM    = UTC
MEAN_ELEMENT_THEORY = SGP/SGP4

EPOCH          = 2025-12-31T04:34:06.451680
MEAN_MOTION    = 15.79806691
ECCENTRICITY   = .00053566
INCLINATION    = 82.4866
RA_OF_ASC_NODE = 271.9874
ARG_OF_PERICENTER = 63.5599
MEAN_ANOMALY   = 296.6218

EPHEMERIS_TYPE = 0
CLASSIFICATION_TYPE = U
NORAD_CAT_ID   = 17295
ELEMENT_SET_NO = 999
REV_AT_EPOCH   = 13356
BSTAR          = .83373358E-3
MEAN_MOTION_DOT = .155359E-2
MEAN_MOTION_DDOT = 0

CCSDS_OMM_VERS = 2.0
CREATION_DATE  = 
ORIGINATOR     = 

OBJECT_NAME    = SL-14 R/B
OBJECT_ID      = 1987-024B
CENTER_NAME    = EARTH
REF_FRAME      = TEME
TIME_SYSTEM    = UTC
MEAN_ELEMENT_THEORY = SGP/SGP4

EPOCH          = 2025-12-30T19:48:23.614848
MEAN_MOTION    = 14.86047018
ECCENTRICITY   = .0019452
INCLINATION    = 82.5284
RA_OF_ASC_NODE = 157.4648
ARG_OF_PERICENTER = 126.2126
MEAN_ANOMALY   = 234.0893

EPHEMERIS_TYPE = 0
CLASSIFICATION_TYPE = U
NORAD_CAT_ID   = 17567
ELEMENT_SET_NO = 999
REV_AT_EPOCH   = 7790
BSTAR          = .11474E-3
MEAN_MOTION_DOT = .1031E-4
MEAN_MOTION_DDOT = 0

CCSDS_OMM_VERS = 2.0
CREATION_DATE  = 
ORIGINATOR     = 

OBJECT_NAME    = COSMOS 1833
OBJECT_ID      = 1987-027A
CENTER_NAME    = EARTH
REF_FRAME      = TEME
TIME_SYSTEM    = UTC
MEAN_ELEMENT_THEORY = SGP/SGP4

EPOCH          = 2025-12-31T06:21:35.839296
MEAN_MOTION    = 14.13032677
ECCENTRICITY   = .00233936
INCLINATION    = 70.9176
RA_OF_ASC_NODE = 109.8357
ARG_OF_PERICENTER = 305.9557
MEAN_ANOMALY   = 53.9394

EPHEMERIS_TYPE = 0
CLASSIFICATION_TYPE = U
NORAD_CAT_ID   = 17589
ELEMENT_SET_NO = 999
REV_AT_EPOCH   = 65
BSTAR          = .20207893E-3
MEAN_MOTION_DOT = .33E-5
MEAN_MOTION_DDOT = 0

CCSDS_OMM_VERS = 2.0
CREATION_DATE  = 
ORIGINATOR     = 

OBJECT_NAME    = SL-16 R/B
OBJECT_ID      = 1987-027B
CENTER_NAME    = EARTH
REF_FRAME      = TEME
TIME_SYSTEM    = UTC
MEAN_ELEMENT_THEORY = SGP/SGP4

EPOCH          = 2025-12-31T07:05:51.238752
MEAN_MOTION    = 14.17156038
ECCENTRICITY   = .000708
INCLINATION    = 71.0033
RA_OF_ASC_NODE = 60.6180
ARG_OF_PERICENTER = 240.3764
MEAN_ANOMALY   = 119.6655

EPHEMERIS_TYPE = 0
CLASSIFICATION_TYPE = U
NORAD_CAT_ID   = 17590
ELEMENT_SET_NO = 999
REV_AT_EPOCH   = 565
BSTAR          = -.31240648E-4
MEAN_MOTION_DOT = -.111E-5
MEAN_MOTION_DDOT = 0

CCSDS_OMM_VERS = 2.0
CREATION_DATE  = 
ORIGINATOR     = 

OBJECT_NAME    = SL-14 R/B
OBJECT_ID      = 1987-038B
CENTER_NAME    = EARTH
REF_FRAME      = TEME
TIME_SYSTEM    = UTC
MEAN_ELEMENT_THEORY = SGP/SGP4

EPOCH          = 2025-12-31T01:18:09.062784
MEAN_MOTION    = 14.85282055
ECCENTRICITY   = .00202219
INCLINATION    = 82.5010
RA_OF_ASC_NODE = 1.4485
ARG_OF_PERICENTER = 35.5085
MEAN_ANOMALY   = 324.7472

EPHEMERIS_TYPE = 0
CLASSIFICATION_TYPE = U
NORAD_CAT_ID   = 17912
ELEMENT_SET_NO = 999
REV_AT_EPOCH   = 6904
BSTAR          = .10618298E-3
MEAN_MOTION_DOT = .939E-5
MEAN_MOTION_DDOT = 0

CCSDS_OMM_VERS = 2.0
CREATION_DATE  = 
ORIGINATOR     = 

OBJECT_NAME    = COSMOS 1844
OBJECT_ID      = 1987-041A
CENTER_NAME    = EARTH
REF_FRAME      = TEME
TIME_SYSTEM    = UTC
MEAN_ELEMENT_THEORY = SGP/SGP4

EPOCH          = 2025-12-30T22:45:16.260768
MEAN_MOTION    = 14.14536235
ECCENTRICITY   = .0029115
INCLINATION    = 70.8981
RA_OF_ASC_NODE = 179.1666
ARG_OF_PERICENTER = 128.2738
MEAN_ANOMALY   = 232.1010

EPHEMERIS_TYPE = 0
CLASSIFICATION_TYPE = U
NORAD_CAT_ID   = 17973
ELEMENT_SET_NO = 999
REV_AT_EPOCH   = 99386
BSTAR          = .1998E-3
MEAN_MOTION_DOT = .337E-5
MEAN_MOTION_DDOT = 0

CCSDS_OMM_VERS = 2.0
CREATION_DATE  = 
ORIGINATOR     = 

OBJECT_NAME    = SL-14 R/B
OBJECT_ID      = 1987-055B
CENTER_NAME    = EARTH
REF_FRAME      = TEME
TIME_SYSTEM    = UTC
MEAN_ELEMENT_THEORY = SGP/SGP4

EPOCH          = 2025-12-31T05:52:49.772928
MEAN_MOTION    = 14.85542807
ECCENTRICITY   = .00194002
INCLINATION    = 82.4986
RA_OF_ASC_NODE = 53.5471
ARG_OF_PERICENTER = 237.7181
MEAN_ANOMALY   = 122.2156

EPHEMERIS_TYPE = 0
CLASSIFICATION_TYPE = U
NORAD_CAT_ID   = 18153
ELEMENT_SET_NO = 999
REV_AT_EPOCH   = 5977
BSTAR          = .96016125E-4
MEAN_MOTION_DOT = .856E-5
MEAN_MOTION_DDOT = 0

CCSDS_OMM_VERS = 2.0
CREATION_DATE  = 
ORIGINATOR     = 

OBJECT_NAME    = COSMOS 1867
OBJECT_ID      = 1987-060A
CENTER_NAME    = EARTH
REF_FRAME      = TEME
TIME_SYSTEM    = UTC
MEAN_ELEMENT_THEORY = SGP/SGP4

EPOCH          = 2025-12-30T20:05:10.410720
MEAN_MOTION    = 14.31489629
ECCENTRICITY   = .0013756
INCLINATION    = 65.0099
RA_OF_ASC_NODE = 139.5229
ARG_OF_PERICENTER = 272.9644
MEAN_ANOMALY   = 86.9866

EPHEMERIS_TYPE = 0
CLASSIFICATION_TYPE = U
NORAD_CAT_ID   = 18187
ELEMENT_SET_NO = 999
REV_AT_EPOCH   = 1008
BSTAR          = .50745014E-4
MEAN_MOTION_DOT = .35E-6
MEAN_MOTION_DDOT = 0

CCSDS_OMM_VERS = 2.0
CREATION_DATE  = 
ORIGINATOR     = 

OBJECT_NAME    = SL-14 R/B
OBJECT_ID      = 1988-001B
CENTER_NAME    = EARTH
REF_FRAME      = TEME
TIME_SYSTEM    = UTC
MEAN_ELEMENT_THEORY = SGP/SGP4

EPOCH          = 2025-12-31T05:39:37.884096
MEAN_MOTION    = 14.85445692
ECCENTRICITY   = .00195691
INCLINATION    = 82.5130
RA_OF_ASC_NODE = 259.7520
ARG_OF_PERICENTER = 103.5065
MEAN_ANOMALY   = 256.8333

EPHEMERIS_TYPE = 0
CLASSIFICATION_TYPE = U
NORAD_CAT_ID   = 18749
ELEMENT_SET_NO = 999
REV_AT_EPOCH   = 3186
BSTAR          = .95798339E-4
MEAN_MOTION_DOT = .853E-5
MEAN_MOTION_DDOT = 0

